[
    {
        "Altitude(m)": 604221.2050665824,
        "Argument of Periapsis(deg)": 0.0,
        "Eccentricity": 0.0,
        "Inclination(deg)": 60.0,
        "Latitude(deg)": 14.117250070615707,
        "Longitude(deg)": -156.6658258655933,
        "Mean Anomaly(deg)": 16.363599999999984,
        "RAAN(deg)": 295.00000000000006,
        "Satellite Name": "Test1 1299",
        "Satellite Number": 1299,
        "Semi-Major Axis(m)": 6980739.136638005,
        "Time(s)": 0
    },
    {
        "Altitude(m)": 604235.3459302675,
        "Argument of Periapsis(deg)": 0.00010418945913296404,
        "Eccentricity": 0.0,
        "Inclination(deg)": 60.0,
        "Latitude(deg)": 14.651646422431117,
        "Longitude(deg)": -156.37737811246743,
        "Mean Anomaly(deg)": 16.983706145461838,
        "RAAN(deg)": 294.99957995086027,
        "Satellite Name": "Test1 1299",
        "Satellite Number": 1299,
        "Semi-Major Axis(m)": 6980739.136638005,
        "Time(s)": 10
    }
]